ZHUHAI-1 02 (CAS-4B)    
1 42759U 17034B   23319.56661118  .00010544  00000+0  47722-3 0  9992
2 42759  43.0158 352.2046 0010834   1.9564 358.1326 15.20917997354654
NUSAT-3 (MILANESAT)     
1 42760U 17034C   23319.79457546  .00012568  00000+0  53763-3 0  9997
2 42760  43.0113 340.7569 0013475  27.8785 332.2784 15.22681145354820
ZHUHAI-1 01 (CAS-4A)    
1 42761U 17034D   23319.77815352  .00010921  00000+0  49299-3 0  9999
2 42761  43.0155 349.5223 0011443   3.8265 356.2670 15.20974560354690
UCLSAT                  
1 42765U 17036A   23319.09106188  .01528767  17315-2  15537-2 0  9990
2 42765  97.1086   0.1302 0005121 239.8622 120.2155 16.11331465357501
NIUSAT                  
1 42766U 17036B   23319.80606401  .00050664  00000+0  84691-3 0  9996
2 42766  97.1371 348.6574 0004781 265.8707  94.2000 15.51747790356013
CARTOSAT-2E             
1 42767U 17036C   23319.75174877  .00005956  00000+0  28578-3 0  9994
2 42767  97.4701  16.9572 0007247  23.4287 336.7277 15.19231243354752
CE-SAT-I                
1 42769U 17036E   23319.58040905  .00012757  00000+0  39138-3 0  9992
2 42769  97.1459 340.1786 0009424 305.7646  54.2721 15.33837708355395
AALTO-1                 
1 42775U 17036L   23319.32255381  .00024641  00000+0  55353-3 0  9999
2 42775  97.1350 345.5908 0005926 280.4733  79.5847 15.43329058355761
URSA MAIOR              
1 42776U 17036M   23319.00464106  .00041626  00000+0  82655-3 0  9999
2 42776  97.1359 347.2023 0005267 272.8134  87.2513 15.46865096355829
MAX VALIER SAT          
1 42778U 17036P   23319.00484618  .00037677  00000+0  70623-3 0  9994
2 42778  97.1343 351.0210 0004268 268.3044  91.7718 15.48558793355984
LEMUR-2-SAM-AMELIA      
1 42781U 17036S   23319.07982072  .00059215  00000+0  76606-3 0  9991
2 42781  97.1176 356.7624 0003114 246.6492 113.4437 15.58731013356371
DIAMOND RED             
1 42783U 17036U   23319.03265666  .00048994  00000+0  79079-3 0  9991
2 42783  97.1294 351.3957 0003173 276.3544  83.7349 15.52743185356094
PEGASUS                 
1 42784U 17036V   23319.05743408  .00149038  00000+0  11295-2 0  9995
2 42784  97.1223 356.4437 0002701 217.3212 142.7864 15.71918407356448
DIAMOND GREEN           
1 42785U 17036W   23319.06128816  .00059772  00000+0  86763-3 0  9995
2 42785  97.1276 351.9788 0003103 265.3879  94.7022 15.55624367356202
DIAMOND BLUE            
1 42786U 17036X   23319.04434795  .00053493  00000+0  82763-3 0  9990
2 42786  97.1308 351.7230 0003497 262.6509  97.4348 15.53897044356185
CICERO 6                
1 42793U 17036AE  23319.82853156  .00041160  00000+0  76053-3 0  9993
2 42793  97.1286 351.7210 0003339 272.7529  87.3340 15.48955918356285
BULGARIASAT-1           
1 42801U 17038A   23319.56443785  .00000032  00000+0  00000+0 0  9997
2 42801   0.0077 120.4439 0002698 111.7386  27.3369  1.00270079 23366
IRIDIUM 113             
1 42803U 17039A   23319.50485735  .00000377  00000+0  12772-3 0  9990
2 42803  86.3992 356.9422 0001964  93.6086 266.5334 14.34217502335783
IRIDIUM 123             
1 42804U 17039B   23319.26725559  .00000398  00000+0  13519-3 0  9998
2 42804  86.4008  28.5271 0001927  94.2186 265.9230 14.34218803334517
IRIDIUM 120             
1 42805U 17039C   23319.49851061  .00000355  00000+0  11987-3 0  9992
2 42805  86.3981 356.8499 0002107  93.7364 266.4073 14.34217273335779
IRIDIUM 115             
1 42806U 17039D   23319.83256121  .00000158  00000+0  41052-4 0  9995
2 42806  86.4539 356.7009 0002308  93.5086 266.6379 14.43279425338050
IRIDIUM 118             
1 42807U 17039E   23319.22920194  .00000382  00000+0  12939-3 0  9997
2 42807  86.4008  28.5452 0002099  94.4169 265.7266 14.34218646334506
IRIDIUM 117             
1 42808U 17039F   23319.24823463  .00000390  00000+0  13228-3 0  9992
2 42808  86.4007  28.5034 0002082  98.2734 261.8698 14.34216134334533
IRIDIUM 126             
1 42809U 17039G   23319.27360348  .00000393  00000+0  13323-3 0  9993
2 42809  86.4008  28.5287 0001884  98.8478 261.2931 14.34217124334517
IRIDIUM 124             
1 42810U 17039H   23319.55835916  .00000241  00000+0  65680-4 0  9990
2 42810  86.4470 325.1808 0002477  91.6077 268.5408 14.43284852338865
IRIDIUM 128             
1 42811U 17039J   23319.33409847  .00000661  00000+0  22889-3 0  9996
2 42811  86.3985  60.0212 0002070  97.9851 262.1579 14.34214597334558
IRIDIUM 121             
1 42812U 17039K   23319.29263258  .00000374  00000+0  12635-3 0  9995
2 42812  86.4009  28.5424 0001997  93.1822 266.9602 14.34216437334390
HELLAS-SAT 3            
1 42814U 17040A   23319.78669389  .00000173  00000+0  00000+0 0  9994
2 42814   0.0679 332.3792 0000794 317.8328  86.6556  1.00268080 23392
GSAT-17                 
1 42815U 17040B   23319.79757174 -.00000237  00000+0  00000+0 0  9998
2 42815   0.0505  94.1068 0006409 159.2630 181.8898  1.00271508 23401
INTELSAT 35E (IS-35E)   
1 42818U 17041A   23319.49146844 -.00000216  00000+0  00000+0 0  9992
2 42818   0.0136 319.1374 0001814 272.6032 325.0476  1.00271106 23346
KANOPUS-V-IK            
1 42825U 17042A   23319.80930037  .00003967  00000+0  17357-3 0  9993
2 42825  97.4052 225.7393 0002035  88.3417 271.8052 15.22633590351664
NORSAT 1                
1 42826U 17042B   23319.50466290  .00003884  00000+0  34936-3 0  9996
2 42826  97.3838 149.0613 0014758  73.5918 286.6925 14.96105031345138
NORSAT 2                
1 42828U 17042D   23319.49706428  .00005974  00000+0  51436-3 0  9992
2 42828  97.3830 151.8957 0014385  71.0225 289.2555 14.97622469345255
TECHNOSAT               
1 42829U 17042E   23319.48122177  .00003577  00000+0  33424-3 0  9999
2 42829  97.3806 147.9376 0014722  78.1890 282.0982 14.94656201345085
FLYING LAPTOP           
1 42831U 17042G   23319.78651047  .00001983  00000+0  19173-3 0  9992
2 42831  97.3821 148.4120 0014576  78.3859 281.8997 14.93764372345117
WNISAT 1R               
1 42835U 17042L   23319.49781327  .00001895  00000+0  18275-3 0  9993
2 42835  97.3803 148.0190 0014091  76.8910 283.3883 14.93917898345098
LEMUR-2-GREENBERG       
1 42837U 17042N   23319.49702253  .00006713  00000+0  54914-3 0  9990
2 42837  97.3787 153.9592 0013582  65.4366 294.8272 14.99571250345425
LEMUR-2-ANDIS           
1 42838U 17042P   23319.49577493  .00007281  00000+0  59628-3 0  9995
2 42838  97.3767 153.7987 0013511  64.6184 295.6437 14.99499250345422
LEMUR-2-MONSON          
1 42839U 17042Q   23319.48423023  .00006072  00000+0  50476-3 0  9993
2 42839  97.3786 153.4492 0012191  65.1056 295.1434 14.99001310345382
LEMUR-2-FURIAUS         
1 42840U 17042R   23319.79148645  .00006188  00000+0  51352-3 0  9995
2 42840  97.3802 154.1440 0012133  59.8296 300.4128 14.99062757345423
LEMUR-2-PETERG          
1 42841U 17042S   23319.49863665  .00006727  00000+0  55925-3 0  9998
2 42841  97.3823 155.1994 0012946  62.8027 297.4515 14.98955639345457
LEMUR-2-DEMBITZ         
1 42842U 17042T   23319.49854565  .00006620  00000+0  54490-3 0  9996
2 42842  97.3792 155.1499 0013069  63.0479 297.2078 14.99342607345474
NANOACE                 
1 42844U 17042V   23319.54656994  .00005829  00000+0  48782-3 0  9997
2 42844  97.3728 153.4740 0011418  56.1835 304.0474 14.98763804345449
LEMUR-2-ZACHARY         
1 42845U 17042W   23319.50228549  .00008490  00000+0  65342-3 0  9993
2 42845  97.3801 154.6681 0009493  79.1125 281.1168 15.01872963345588
CORVUS BC2              
1 42846U 17042X   23319.50973998  .00002427  00000+0  22243-3 0  9996
2 42846  97.3750 151.8692 0010259  66.0520 294.1776 14.95743607345335
CORVUS BC1              
1 42847U 17042Y   23319.49089440  .00003732  00000+0  33840-3 0  9990
2 42847  97.3747 152.2218 0010048  66.4402 293.7874 14.95853320345349
VENUS                   
1 42901U 17044B   23319.76770559  .00004800  00000+0  37906-3 0  9995
2 42901  97.4515  23.4858 0004145 343.2115  16.8972 15.01135986338727
COSMOS 2520             
1 42907U 17046A   23319.57305309  .00000158  00000+0  00000+0 0  9992
2 42907   0.0179 116.5116 0000518 134.6306  54.5843  1.00275192 22920
TDRS 13                 
1 42915U 17047A   23319.41850073 -.00000081  00000+0  00000+0 0  9994
2 42915   3.8381 340.3911 0013372 126.8131  86.2146  1.00271556 22878
QZS-3 (MICHIBIKI-3)     
1 42917U 17048A   23319.50952310 -.00000327  00000+0  00000+0 0  9997
2 42917   0.0838 128.8762 0002485 111.4722 124.5018  1.00269256 22786
FORMOSAT-5              
1 42920U 17049A   23319.78085773  .00000365  00000+0  10387-3 0  9996
2 42920  98.3117  35.4186 0011778 107.0858 253.1628 14.50825317329735
ORS-5 SENSORSAT         
1 42921U 17050A   23319.52740734  .00003101  00000+0  21031-3 0  9995
2 42921   0.0497 313.4950 0011935  78.2380 328.3389 14.94165614339712
AMAZONAS 5              
1 42934U 17053A   23319.76685272 -.00000262  00000+0  00000+0 0  9998
2 42934   0.0337 318.0929 0004029 306.6434   4.9492  1.00273232 22653
COSMOS 2522 [GLONASS-M] 
1 42939U 17055A   23319.03549785  .00000046  00000+0  00000+0 0  9992
2 42939  64.0925 224.1306 0007033 240.0410 119.9544  2.13102028 47831
ASIASAT 9               
1 42942U 17057A   23319.44512966 -.00000338  00000+0  00000+0 0  9999
2 42942   0.0108 316.8091 0002584 277.5013 102.3384  1.00271058 22384
YAOGAN-30 A             
1 42945U 17058A   23319.78234186  .00003291  00000+0  30964-3 0  9991
2 42945  34.9996 347.8378 0004254 206.6202 153.4286 14.93442824334144
YAOGAN-30 B             
1 42946U 17058B   23319.53773902  .00003306  00000+0  31130-3 0  9992
2 42946  34.9995 349.6107 0001195  24.3185 335.7576 14.93417190334099
YAOGAN-30 C             
1 42947U 17058C   23319.51944658  .00003530  00000+0  32951-3 0  9990
2 42947  34.9993 349.4357 0006803 248.1989 111.7993 14.93716640334088
INTELSAT 37E (IS-37E)   
1 42950U 17059A   23319.51907889 -.00000119  00000+0  00000+0 0  9997
2 42950   0.0161 293.7221 0003008 300.4510 349.0715  1.00270639 22595
